start=new Date('2022-09-11T00:00:00.000Z').valueOf();
sats=[{"MEAN_ELEMENT_THEORY":"SGP4","RCS_SIZE":"LARGE","ECCENTRICITY":"0.00017090","EPHEMERIS_TYPE":"0","PERIAPSIS":"543.033","FILE":"3567798","SEMIMAJOR_AXIS":"6922.351","EPOCH":"2022-09-10T20:13:06.377952","RA_OF_ASC_NODE":"203.9195","OBJECT_NAME":"STARLINK-1467","COUNTRY_CODE":"US","MEAN_ANOMALY":"289.3163","MEAN_MOTION":"15.07378717","BSTAR":"0.00091335000000","PERIOD":"95.530","CENTER_NAME":"EARTH","REV_AT_EPOCH":"12389","TLE_LINE1":"1 45733U 20038D   22253.84243493  .00013713  00000-0  91335-3 0  9995","NORAD_CAT_ID":"45733","LAUNCH_DATE":"2020-06-13","GP_ID":"212267331","ARG_OF_PERICENTER":"70.8011","MEAN_MOTION_DDOT":"0.0000000000000","OBJECT_ID":"2020-038D","SITE":"AFETR","CLASSIFICATION_TYPE":"U","TLE_LINE2":"2 45733  53.0524 203.9195 0001709  70.8011 289.3163 15.07378717123897","TIME_SYSTEM":"UTC","REF_FRAME":"TEME","DECAY_DATE":null,"APOAPSIS":"545.399","ELEMENT_SET_NO":"999","INCLINATION":"53.0524","MEAN_MOTION_DOT":"0.00013713","OBJECT_TYPE":"PAYLOAD"},{"PERIAPSIS":"544.912","FILE":"3567066","SEMIMAJOR_AXIS":"6924.297","EPOCH":"2022-09-10T07:24:31.375008","MEAN_ELEMENT_THEORY":"SGP4","RCS_SIZE":"LARGE","ECCENTRICITY":"0.00018050","EPHEMERIS_TYPE":"0","BSTAR":"0.00076226000000","PERIOD":"95.570","CENTER_NAME":"EARTH","TLE_LINE1":"1 45734U 20038E   22253.30869647  .00011196  00000-0  76226-3 0  9997","REV_AT_EPOCH":"12381","NORAD_CAT_ID":"45734","OBJECT_NAME":"STARLINK-1468","RA_OF_ASC_NODE":"206.4975","COUNTRY_CODE":"US","MEAN_ANOMALY":"285.2815","MEAN_MOTION":"15.06743212","OBJECT_ID":"2020-038E","SITE":"AFETR","CLASSIFICATION_TYPE":"U","TLE_LINE2":"2 45734  53.0538 206.4975 0001805  74.8374 285.2815 15.06743212123816","TIME_SYSTEM":"UTC","REF_FRAME":"TEME","LAUNCH_DATE":"2020-06-13","ARG_OF_PERICENTER":"74.8374","GP_ID":"212223692","MEAN_MOTION_DDOT":"0.0000000000000","INCLINATION":"53.0538","MEAN_MOTION_DOT":"0.00011196","OBJECT_TYPE":"PAYLOAD","DECAY_DATE":null,"APOAPSIS":"547.412","ELEMENT_SET_NO":"999"},{"NORAD_CAT_ID":"45735","PERIOD":"95.592","BSTAR":"0.00000803120000","CENTER_NAME":"EARTH","TLE_LINE1":"1 45735U 20038F   22253.28167525 -.00000162  00000-0  80312-5 0  9996","REV_AT_EPOCH":"12380","RA_OF_ASC_NODE":"206.6477","OBJECT_NAME":"STARLINK-1471","COUNTRY_CODE":"US","MEAN_ANOMALY":"278.0726","MEAN_MOTION":"15.06396701","SEMIMAJOR_AXIS":"6925.359","EPOCH":"2022-09-10T06:45:36.741600","PERIAPSIS":"546.395","FILE":"3567066","EPHEMERIS_TYPE":"0","MEAN_ELEMENT_THEORY":"SGP4","RCS_SIZE":"LARGE","ECCENTRICITY":"0.00011960","OBJECT_TYPE":"PAYLOAD","INCLINATION":"53.0528","MEAN_MOTION_DOT":"-0.00000162","APOAPSIS":"548.052","ELEMENT_SET_NO":"999","DECAY_DATE":null,"TLE_LINE2":"2 45735  53.0528 206.6477 0001196  82.0398 278.0726 15.06396701123802","TIME_SYSTEM":"UTC","REF_FRAME":"TEME","OBJECT_ID":"2020-038F","SITE":"AFETR","CLASSIFICATION_TYPE":"U","LAUNCH_DATE":"2020-06-13","GP_ID":"212223943","ARG_OF_PERICENTER":"82.0398","MEAN_MOTION_DDOT":"0.0000000000000"},{"OBJECT_ID":"2020-038G","SITE":"AFETR","CLASSIFICATION_TYPE":"U","REF_FRAME":"TEME","TLE_LINE2":"2 45736  53.0622 159.7031 0002123 140.1329 219.9831 15.39260729125587","TIME_SYSTEM":"UTC","LAUNCH_DATE":"2020-06-13","MEAN_MOTION_DDOT":"0.0000000000000","GP_ID":"212174831","ARG_OF_PERICENTER":"140.1329","MEAN_MOTION_DOT":"0.00010421","INCLINATION":"53.0622","OBJECT_TYPE":"PAYLOAD","DECAY_DATE":null,"ELEMENT_SET_NO":"999","APOAPSIS":"449.745","PERIAPSIS":"446.847","FILE":"3565752","EPOCH":"2022-09-10T03:03:41.910624","SEMIMAJOR_AXIS":"6826.431","MEAN_ELEMENT_THEORY":"SGP4","RCS_SIZE":"LARGE","ECCENTRICITY":"0.00021230","EPHEMERIS_TYPE":"0","BSTAR":"0.00027331000000","PERIOD":"93.551","TLE_LINE1":"1 45736U 20038G   22253.12756841  .00010421  00000-0  27331-3 0  9993","REV_AT_EPOCH":"12558","CENTER_NAME":"EARTH","NORAD_CAT_ID":"45736","COUNTRY_CODE":"US","MEAN_ANOMALY":"219.9831","OBJECT_NAME":"STARLINK-1472","RA_OF_ASC_NODE":"159.7031","MEAN_MOTION":"15.39260729"},{"PERIAPSIS":"546.394","FILE":"3567066","SEMIMAJOR_AXIS":"6925.376","EPOCH":"2022-09-10T06:29:41.586144","RCS_SIZE":"LARGE","MEAN_ELEMENT_THEORY":"SGP4","ECCENTRICITY":"0.00012230","EPHEMERIS_TYPE":"0","PERIOD":"95.593","BSTAR":"0.00002278400000","CENTER_NAME":"EARTH","REV_AT_EPOCH":"12380","TLE_LINE1":"1 45738U 20038J   22253.27062021  .00000058  00000-0  22784-4 0  9994","NORAD_CAT_ID":"45738","RA_OF_ASC_NODE":"206.6990","OBJECT_NAME":"STARLINK-1474","COUNTRY_CODE":"US","MEAN_ANOMALY":"282.4881","MEAN_MOTION":"15.06391017","SITE":"AFETR","OBJECT_ID":"2020-038J","CLASSIFICATION_TYPE":"U","TLE_LINE2":"2 45738  53.0541 206.6990 0001223  77.6245 282.4881 15.06391017123808","TIME_SYSTEM":"UTC","REF_FRAME":"TEME","LAUNCH_DATE":"2020-06-13","ARG_OF_PERICENTER":"77.6245","GP_ID":"212224936","MEAN_MOTION_DDOT":"0.0000000000000","INCLINATION":"53.0541","MEAN_MOTION_DOT":"0.00000058","OBJECT_TYPE":"PAYLOAD","DECAY_DATE":null,"APOAPSIS":"548.088","ELEMENT_SET_NO":"999"},{"INCLINATION":"53.0553","MEAN_MOTION_DOT":"-0.00000410","OBJECT_TYPE":"PAYLOAD","DECAY_DATE":null,"APOAPSIS":"548.468","ELEMENT_SET_NO":"999","CLASSIFICATION_TYPE":"U","OBJECT_ID":"2020-038K","SITE":"AFETR","TLE_LINE2":"2 45739  53.0553 167.2152 0001796  63.5777 296.5396 15.06396663125310","TIME_SYSTEM":"UTC","REF_FRAME":"TEME","ARG_OF_PERICENTER":"63.5777","GP_ID":"212174849","MEAN_MOTION_DDOT":"0.0000000000000","LAUNCH_DATE":"2020-06-13","CENTER_NAME":"EARTH","REV_AT_EPOCH":"12531","TLE_LINE1":"1 45739U 20038K   22253.15172454 -.00000410  00000-0 -86176-5 0  9994","BSTAR":"-0.00000861760000","PERIOD":"95.592","NORAD_CAT_ID":"45739","MEAN_MOTION":"15.06396663","OBJECT_NAME":"STARLINK-1475","RA_OF_ASC_NODE":"167.2152","COUNTRY_CODE":"US","MEAN_ANOMALY":"296.5396","FILE":"3565753","PERIAPSIS":"545.980","SEMIMAJOR_AXIS":"6925.359","EPOCH":"2022-09-10T03:38:29.000256","ECCENTRICITY":"0.00017960","MEAN_ELEMENT_THEORY":"SGP4","RCS_SIZE":"LARGE","EPHEMERIS_TYPE":"0"},{"COUNTRY_CODE":"US","MEAN_ANOMALY":"281.5258","OBJECT_NAME":"STARLINK-1479","RA_OF_ASC_NODE":"203.9806","MEAN_MOTION":"15.06402000","PERIOD":"95.592","BSTAR":"0.00009451800000","TLE_LINE1":"1 45740U 20038L   22253.87510678  .00001127  00000-0  94518-4 0  9991","REV_AT_EPOCH":"12389","CENTER_NAME":"EARTH","NORAD_CAT_ID":"45740","MEAN_ELEMENT_THEORY":"SGP4","RCS_SIZE":"LARGE","ECCENTRICITY":"0.00015840","EPHEMERIS_TYPE":"0","PERIAPSIS":"546.110","FILE":"3567798","EPOCH":"2022-09-10T21:00:09.225792","SEMIMAJOR_AXIS":"6925.342","DECAY_DATE":null,"ELEMENT_SET_NO":"999","APOAPSIS":"548.304","MEAN_MOTION_DOT":"0.00001127","INCLINATION":"53.0542","OBJECT_TYPE":"PAYLOAD","LAUNCH_DATE":"2020-06-13","MEAN_MOTION_DDOT":"0.0000000000000","ARG_OF_PERICENTER":"78.5909","GP_ID":"212265832","SITE":"AFETR","OBJECT_ID":"2020-038L","CLASSIFICATION_TYPE":"U","REF_FRAME":"TEME","TLE_LINE2":"2 45740  53.0542 203.9806 0001584  78.5909 281.5258 15.06402000123897","TIME_SYSTEM":"UTC"},{"LAUNCH_DATE":"2020-06-13","ARG_OF_PERICENTER":"76.6590","GP_ID":"212174859","MEAN_MOTION_DDOT":"0.0000000000000","OBJECT_ID":"2020-038M","SITE":"AFETR","CLASSIFICATION_TYPE":"U","TLE_LINE2":"2 45741  53.0524 207.0845 0001361  76.6590 283.4551 15.06402271124915","TIME_SYSTEM":"UTC","REF_FRAME":"TEME","DECAY_DATE":null,"APOAPSIS":"548.149","ELEMENT_SET_NO":"999","INCLINATION":"53.0524","MEAN_MOTION_DOT":"0.00002210","OBJECT_TYPE":"PAYLOAD","RCS_SIZE":"LARGE","MEAN_ELEMENT_THEORY":"SGP4","ECCENTRICITY":"0.00013610","EPHEMERIS_TYPE":"0","PERIAPSIS":"546.264","FILE":"3565754","SEMIMAJOR_AXIS":"6925.342","EPOCH":"2022-09-10T04:22:17.766048","RA_OF_ASC_NODE":"207.0845","OBJECT_NAME":"STARLINK-1480","MEAN_ANOMALY":"283.4551","COUNTRY_CODE":"US","MEAN_MOTION":"15.06402271","PERIOD":"95.592","BSTAR":"0.00016721000000","CENTER_NAME":"EARTH","REV_AT_EPOCH":"12491","TLE_LINE1":"1 45741U 20038M   22253.18215007  .00002210  00000-0  16721-3 0  9997","NORAD_CAT_ID":"45741"},{"OBJECT_TYPE":"PAYLOAD","INCLINATION":"53.0547","MEAN_MOTION_DOT":"-0.00001259","APOAPSIS":"548.230","ELEMENT_SET_NO":"999","DECAY_DATE":null,"TLE_LINE2":"2 45742  53.0547 206.5146 0001429  77.9222 282.1927 15.06391326123808","TIME_SYSTEM":"UTC","REF_FRAME":"TEME","OBJECT_ID":"2020-038N","SITE":"AFETR","CLASSIFICATION_TYPE":"U","LAUNCH_DATE":"2020-06-13","GP_ID":"212225436","ARG_OF_PERICENTER":"77.9222","MEAN_MOTION_DDOT":"0.0000000000000","NORAD_CAT_ID":"45742","PERIOD":"95.593","BSTAR":"-0.00006567400000","CENTER_NAME":"EARTH","REV_AT_EPOCH":"12380","TLE_LINE1":"1 45742U 20038N   22253.30747491 -.00001259  00000-0 -65674-4 0  9995","RA_OF_ASC_NODE":"206.5146","OBJECT_NAME":"STARLINK-1481","COUNTRY_CODE":"US","MEAN_ANOMALY":"282.1927","MEAN_MOTION":"15.06391326","SEMIMAJOR_AXIS":"6925.375","EPOCH":"2022-09-10T07:22:45.832224","PERIAPSIS":"546.251","FILE":"3567066","EPHEMERIS_TYPE":"0","RCS_SIZE":"LARGE","MEAN_ELEMENT_THEORY":"SGP4","ECCENTRICITY":"0.00014290"},{"SEMIMAJOR_AXIS":"6925.366","EPOCH":"2022-09-10T07:47:55.289472","FILE":"3567066","PERIAPSIS":"546.125","EPHEMERIS_TYPE":"0","ECCENTRICITY":"0.00015970","MEAN_ELEMENT_THEORY":"SGP4","RCS_SIZE":"LARGE","NORAD_CAT_ID":"45743","CENTER_NAME":"EARTH","TLE_LINE1":"1 45743U 20038P   22253.32494548  .00001038  00000-0  88576-4 0  9999","REV_AT_EPOCH":"12381","PERIOD":"95.592","BSTAR":"0.00008857600000","MEAN_MOTION":"15.06394409","RA_OF_ASC_NODE":"206.3768","OBJECT_NAME":"STARLINK-1483","MEAN_ANOMALY":"303.3509","COUNTRY_CODE":"US","TLE_LINE2":"2 45743  53.0529 206.3768 0001597  56.7633 303.3509 15.06394409123812","TIME_SYSTEM":"UTC","REF_FRAME":"TEME","CLASSIFICATION_TYPE":"U","SITE":"AFETR","OBJECT_ID":"2020-038P","ARG_OF_PERICENTER":"56.7633","GP_ID":"212223693","MEAN_MOTION_DDOT":"0.0000000000000","LAUNCH_DATE":"2020-06-13","OBJECT_TYPE":"PAYLOAD","INCLINATION":"53.0529","MEAN_MOTION_DOT":"0.00001038","APOAPSIS":"548.337","ELEMENT_SET_NO":"999","DECAY_DATE":null}];
